listing_id,street_address,locality,region,postal_code
173094201,1367 N Alta Vista Blvd #201 ,"Los Angeles, ",CA,90046
31224403,8045 Chalk Knoll Dr ,"Austin, ",TX,78735
160720410,1153 N Formosa Ave #103 ,"West Hollywood, ",CA,90046
27863873,2025 W JEFFERSON St ,"Phoenix, ",AZ,85009
30924885,8740 Odom Dr ,"Dallas, ",TX,75217
28938758,300 Berry St #409 ,"San Francisco, ",CA,94158
7103544,725 N Spaulding Ave ,"Los Angeles, ",CA,90046
89947362,100 Wisconsin Ave #805 ,"Madison, ",WI,53703
25723212,1220 N Orange Grove Ave #12 ,"West Hollywood, ",CA,90046
1992034,22 Beideman St ,"San Francisco, ",CA,94115
12531377,4301 Military Rd NW #611 ,"Washington, ",DC,20015
57864809,1111 E Gorham St ,"Madison, ",WI,53703
40625920,380 14th St #406 ,"San Francisco, ",CA,94103
89903440,1106 E Johnson St ,"Madison, ",WI,53703
57870920,310 N Ingersoll St ,"Madison, ",WI,53703
1405312,36 Camp St ,"San Francisco, ",CA,94110
89945603,123 N Blount St #504 ,"Madison, ",WI,53703
57812419,155 E Wilson St #101 ,"Madison, ",WI,53703
21967151,83 Mcallister St #212 ,"San Francisco, ",CA,94102
145641690,1410 N Stanley ,"Los Angeles, ",CA,90046
57851284,333 W Mifflin St #4040 ,"Madison, ",WI,53703
7122428,8524 Appian Way ,"Los Angeles, ",CA,90046
30924270,8742 Wadlington Ave ,"Dallas, ",TX,75217
173342239,280 Spear St Unit 6C ,"San Francisco, ",CA,94105
876268,140 S Van Ness Ave #717 ,"San Francisco, ",CA,94103
7105726,936 N Harper Ave ,"West Hollywood, ",CA,90046
7125233,2664 Zorada Dr ,"Los Angeles, ",CA,90046
57877690,1403-1405 Williamson St ,"Madison, ",WI,53703
144063812,3669 17th St ,"San Francisco, ",CA,94114
7115455,1636 N Curson Ave ,"Los Angeles, ",CA,90046
7126262,7670 Woodrow Wilson Dr ,"Los Angeles, ",CA,90046
7124449,8418 Lookout Mountain Ave ,"Los Angeles, ",CA,90046
100045813,8205 Laurelmont Dr ,"Los Angeles, ",CA,90068
172764724,7275 W Hazel Ct ,"Los Angeles, ",CA,90046
7102465,828 N Sierra Bonita Ave ,"Los Angeles, ",CA,90046
7115643,1601 N Fuller Ave #604 ,"Los Angeles, ",CA,90046
57844925,1023 Williamson St #2 ,"Madison, ",WI,53703
51680016,95 Hancock St ,"San Francisco, ",CA,94114
30942295,10435 Springhaven Dr ,"Dallas, ",TX,75217
7124477,2226 Stanley Hills Dr ,"Los Angeles, ",CA,90046
2026643,3047 California St ,"San Francisco, ",CA,94115
30744028,9827 Brierhill Dr ,"Dallas, ",TX,75217
1139582,1 Capp St ,"San Francisco, ",CA,94103
22889685,350 Broderick St #204 ,"San Francisco, ",CA,94117
1650753,2250 Bush St ,"San Francisco, ",CA,94115
12531406,4301 Military Rd NW #412 ,"Washington, ",DC,20015
170362281,2608 W VAN BUREN St #4 ,"Phoenix, ",AZ,85009
31202612,3856 Sendero Dr ,"Austin, ",TX,78735
1667074,2660 Scott St ,"San Francisco, ",CA,94123
7103427,842 N Orange Grove Ave ,"Los Angeles, ",CA,90046
2035763,1998 Broadway #902 ,"San Francisco, ",CA,94109
707920,1330 Stevenson St Unit C102 ,"San Francisco, ",CA,94103
7125351,2501 Apollo Dr ,"Los Angeles, ",CA,90046
7125379,2263 Apollo Dr ,"Los Angeles, ",CA,90046
31228372,8101 Chalk Knoll Dr ,"Austin, ",TX,78735
7117136,1400 N Hayworth Ave #27 ,"West Hollywood, ",CA,90046
7117877,1255 N Harper Ave #3 ,"West Hollywood, ",CA,90046
89925122,125 N Hamilton St #1002 ,"Madison, ",WI,53703
1537361,1026 Folsom St #3 ,"San Francisco, ",CA,94103
148027969,211 S Henry St #302 ,"Madison, ",WI,53703
173379051,5201B Wisconsin Ave NW #104 ,"Washington, ",DC,20015
57825506,309 W Washington Ave #1005 ,"Madison, ",WI,53703
31228373,2401 Portofino Ridge Dr ,"Austin, ",TX,78735
7119495,8309 Yucca Trl ,"Los Angeles, ",CA,90046
8137847,1426 N Laurel Ave #109 ,"West Hollywood, ",CA,90046
89936412,309 W Washington Ave #609 ,"Madison, ",WI,53703
57834635,333 W Mifflin St #1057 ,"Madison, ",WI,53703
27573392,541 N 36TH Ave ,"Phoenix, ",AZ,85009
7125387,2124 Mount Olympus Dr ,"Los Angeles, ",CA,90046
9970875,5431 Connecticut Ave NW #2 ,"Washington, ",DC,20015
9980006,6500 Utah Ave NW ,"Washington, ",DC,20015
7101609,849 N Alta Vista Blvd ,"Los Angeles, ",CA,90046
27508330,2418 W MADISON St ,"Phoenix, ",AZ,85009
173378575,1336 A Grn ,"San Francisco, ",CA,94103
8174403,8027 Floral Ave ,"Los Angeles, ",CA,90046
1918860,1502 Taylor St #2 ,"SAN FRANCISCO, ",CA,94133
7101625,836 N Poinsettia Pl ,"Los Angeles, ",CA,90046
12277396,1963A Clay St ,"SAN FRANCISCO, ",CA,94109
30939636,800 N Prairie Creek Rd ,"Dallas, ",TX,75217
7102648,740 N Vista St ,"Los Angeles, ",CA,90046
7119446,8200 Hillside Ave ,"Los Angeles, ",CA,90069
7103422,839 N Ogden Dr ,"Los Angeles, ",CA,90046
21925166,821 N Formosa Ave #101 ,"Los Angeles, ",CA,90046
89936402,309 W Washington Ave #515 ,"Madison, ",WI,53703
7115297,1745 Camino Palmero St #524 ,"West Hollywood, ",CA,90046
171439709,2522 N 35th Ave #001 ,"Phoenix, ",AZ,85009
27504485,2317 W YUMA St ,"Phoenix, ",AZ,85009
170476492,601 S Van Ness Ave ,"San Francisco, ",CA,94110
1225261,1347 Hayes St ,"San Francisco, ",CA,94117
12400542,2500 Steiner St #3 ,"San Francisco, ",CA,94115
148027993,211 S Henry St #402 ,"Madison, ",WI,53703
168955847,488 Folsom #3402 ,"San Francisco, ",CA,94105
89950989,625 E Mifflin St #307 ,"Madison, ",WI,53703
7119335,8121 Gould Ave ,"Los Angeles, ",CA,90046
89915543,1141 Jenifer St ,"Madison, ",WI,53703
1009337,246 2nd St #708 ,"San Francisco, ",CA,94105
110238976,7194 Formosa Fusion Ct ,"Los Angeles, ",CA,90046
89927446,123 N Blount St #606 ,"Madison, ",WI,53703
31691262,3823 Gaines Ct ,"Austin, ",TX,78735
57830278,333 W Mifflin St #2060 ,"Madison, ",WI,53703
57800620,201 N Blair St ,"Madison, ",WI,53703
7117046,8046 Woodland Ln ,"Los Angeles, ",CA,90046
1565595,611 Carolina St ,"San Francisco, ",CA,94107
31224374,8408 Hickory Creek Dr ,"Austin, ",TX,78735
7116372,1845 Courtney Ave ,"Los Angeles, ",CA,90046
591334,2145 Turk Blvd ,"San Francisco, ",CA,94115
1900976,50 Lucerne St #11 ,"San Francisco, ",CA,94103
7122799,8781 Lookout Mountain Ave ,"Los Angeles, ",CA,90046
89903082,656 E Mifflin St ,"Madison, ",WI,53703
6834645,9085 Alto Cedro Dr ,"Beverly Hills, ",CA,90210
27508690,2730 N 20TH Dr ,"Phoenix, ",AZ,85009
1188165,2828 Pierce St ,"San Francisco, ",CA,94123
17304758,787 San Bruno Ave ,"San Francisco, ",CA,94107
7122558,8876 Wonderland Ave ,"Los Angeles, ",CA,90046
7116776,1546 N Fairfax Ave ,"Los Angeles, ",CA,90046
7106565,7631 Norton Ave ,"West Hollywood, ",CA,90046
9993492,2732 Mckinley St NW ,"Washington, ",DC,20015
1810387,1112 Fulton St ,"San Francisco, ",CA,94117
89934969,125 N Hamilton St #803 ,"Madison, ",WI,53703
7117130,1400 N Hayworth Ave #21 ,"West Hollywood, ",CA,90046
173000511,1445 Martel Heights Dr Unit 1/4 ,"Los Angeles, ",CA,90046
89925119,125 N Hamilton St #805 ,"Madison, ",WI,53703
173000510,1445 Martel Heights Dr ,"Los Angeles, ",CA,90046
7114362,7250 Franklin Ave #1004 ,"Los Angeles, ",CA,90046
2023304,1998 Broadway #1002 ,"San Francisco, ",CA,94109
89915568,1227 Rutledge St ,"Madison, ",WI,53703
173372328,1902 Webster St ,"San Francisco, ",CA,94115
27230784,2319 N 39TH Ave ,"Phoenix, ",AZ,85009
17493124,0 NE Lookout Mountain Ave ,"Los Angeles, ",CA,90046
7125791,2811 La Cuesta Dr ,"Los Angeles, ",CA,90046
57838425,333 W Mifflin St #4180 ,"Madison, ",WI,53703
145803108,2918 W PIMA St #4 ,"Phoenix, ",AZ,85009
57857974,615 W Main St #107 ,"Madison, ",WI,53703
144004456,8200 Southwest Pkwy W #103 ,"Austin, ",TX,78735
173219840,1041 N Spaulding Ave #105 ,"Los Angeles, ",CA,90046
160664594,0 Laurel Cyn ,"Los Angeles, ",CA,90046
169571402,1075 Market St #408 ,"SAN FRANCISCO, ",CA,94103
28134743,2006 W Madison St #23 ,"Phoenix, ",AZ,85009
31165692,10500 Lake June Rd Unit I07 ,"Dallas, ",TX,75217
591805,1350 Divisadero St #308 ,"SAN FRANCISCO, ",CA,94115
28016125,3531 W VERNON Ave ,"Phoenix, ",AZ,85009
40138585,233 Franklin St #303 ,"San Francisco, ",CA,94102
30941475,9730 Bruton Rd ,"Dallas, ",TX,75217
62386225,614 W Doty St #305 ,"Madison, ",WI,53703
172022158,2420 W MOHAVE St #10 ,"Phoenix, ",AZ,85009
167573424,1345 Havenhurst Dr #4 ,"West Hollywood, ",CA,90046
849575,246 2nd St #502 ,"San Francisco, ",CA,94105
7126412,2410 Nichols Canyon Rd ,"Los Angeles, ",CA,90046
31141484,1711 E Shore Dr ,"Dallas, ",TX,75217
7106099,953 N Edinburgh Ave ,"Los Angeles, ",CA,90046
1893957,2838 Sacramento St ,"San Francisco, ",CA,94118
27225489,2218 W CAMBRIDGE Ave ,"Phoenix, ",AZ,85009
89951364,309 W Washington Ave #314 ,"Madison, ",WI,53703
7123796,8409 Lookout Mountain Ave ,"Los Angeles, ",CA,90046
7103452,839 N Genesee Ave ,"Los Angeles, ",CA,90046
31165678,10500 Lake June Rd Unit Q4 ,"Dallas, ",TX,75217
9957272,5300 43rd St NW Ph 202 ,"Washington, ",DC,20015
7106462,7505 Hampton Ave #1 ,"West Hollywood, ",CA,90046
7103532,714 N Spaulding Ave ,"Los Angeles, ",CA,90046
172715419,299 S Pleasant Woods Dr #299 ,"Dallas, ",TX,75217
57867812,125 N Bedford St ,"Madison, ",WI,53703
1226692,631 Ofarrell St #1512 ,"San Francisco, ",CA,94109
89964081,1158 E Washington Ave ,"Madison, ",WI,53703
1381361,307 Castro St #2 ,"San Francisco, ",CA,94114
1909937,1565 Grove St ,"San Francisco, ",CA,94117
7116471,1600 N Genesee Ave ,"Los Angeles, ",CA,90046
40142821,2125 Bryant St #307 ,"San Francisco, ",CA,94110
1683742,2574 Green St ,"San Francisco, ",CA,94123
102819850,1155 Leavenworth St #2 ,"San Francisco, ",CA,94109
955981,584 Mississippi St ,"San Francisco, ",CA,94107
7124400,2121 Stanley Hills Dr ,"Los Angeles, ",CA,90046
22397587,8031 Floral Ave ,"Los Angeles, ",CA,90046
7117586,7911 Norton Ave #7911 ,"West Hollywood, ",CA,90046
9957270,5300 43rd St NW Ph 201 ,"Washington, ",DC,20015
32259319,2120 Vine Ln ,"Dallas, ",TX,75217
32308618,8417 Valerio Ln ,"Austin, ",TX,78735
7115540,1525 N Gardner St ,"Los Angeles, ",CA,90046
12395981,10 South Park St #9 ,"San Francisco, ",CA,94107
57828518,333 W Mifflin St #2120 ,"Madison, ",WI,53703
69371251,989 Sutter St #2 ,"San Francisco, ",CA,94109
173302640,2575 Dominion ,"Hollywood, ",CA,90046
27668224,3216 W JEFFERSON St ,"Phoenix, ",AZ,85009
1546277,2548 Pine St ,"San Francisco, ",CA,94115
31231867,8207 Scenic Ridge Cv ,"Austin, ",TX,78735
12531061,4301 Military Rd NW #105 ,"Washington, ",DC,20015
31054049,7324 Fairport Rd ,"Dallas, ",TX,75217
30916077,2027 Joan Dr ,"Dallas, ",TX,75217
31065727,8817 Mountain Shadows Unit A ,"Austin, ",TX,78735
1296581,1 Daniel Burnham Ct #303 ,"San Francisco, ",CA,94109
12281711,1011 N Orange Grove Ave #4 ,"West Hollywood, ",CA,90046
7124944,7911 Oceanus Dr ,"Los Angeles, ",CA,90046
9970157,5406 Connecticut Ave NW #807 ,"Washington, ",DC,20015
7115421,1633 N Curson Ave ,"Los Angeles, ",CA,90046
28415550,2337 W MARICOPA St ,"Phoenix, ",AZ,85009
7101681,820 N Formosa Ave ,"Los Angeles, ",CA,90046
31224462,3303 Hickory Creek Cv ,"Austin, ",TX,78735
9969610,5410 Connecticut Ave NW #415 ,"Washington, ",DC,20015
172989776,8212 Barton Club Dr Unit 29-12 ,"Austin, ",TX,78735
7116448,1716 Courtney Ave ,"Los Angeles, ",CA,90046
7126560,1922 N Curson Ave ,"Los Angeles, ",CA,90046
89944381,360 W Washington Ave #1412 ,"Madison, ",WI,53703
172235511,280 Spear St Unit 4U ,"San Francisco, ",CA,94105
7123183,8700 Hollywood Hills Rd ,"Los Angeles, ",CA,90046
27371197,1916 W TONTO St ,"Phoenix, ",AZ,85009
30940180,818 N Saint Augustine Dr ,"Dallas, ",TX,75217
1741943,210 Noe St ,"San Francisco, ",CA,94114
27722894,915 S 33RD Ave ,"Phoenix, ",AZ,85009
173361484,8314 Utica Dr ,"Los Angeles, ",CA,90046
57851035,137 E Wilson St #413 ,"Madison, ",WI,53703
1466411,30 Miller Pl #3 ,"San Francisco, ",CA,94108
30940792,10217 Elam Rd ,"Dallas, ",TX,75217
22888106,555 4th St #917 ,"San Francisco, ",CA,94107
31236664,8912 Chalk Knoll Dr ,"Austin, ",TX,78735
31231876,8309 Club Ridge Dr ,"Austin, ",TX,78735
12396902,12 Jennifer Pl ,"San Francisco, ",CA,94107
57805129,333 W Mifflin St #3130 ,"Madison, ",WI,53703
31141482,1715 E Shore Dr ,"Dallas, ",TX,75217
30940787,10305 Elam Rd ,"Dallas, ",TX,75217
110051674,443 Waller St ,"San Francisco, ",CA,94117
89951376,309 W Washington Ave #612 ,"Madison, ",WI,53703
7116688,1525 N Hayworth Ave #101 ,"Los Angeles, ",CA,90046
30939481,1219 Oak Hill Cir ,"Dallas, ",TX,75217
109923886,1600 Barton Creek Blvd ,"Austin, ",TX,78735
982763,17 Temple St ,"San Francisco, ",CA,94114
27451579,2822 W POLK St ,"Phoenix, ",AZ,85009
7102400,827 N Curson Ave ,"Los Angeles, ",CA,90046
7126577,2457 Solar Dr ,"Los Angeles, ",CA,90046
7106466,7505 Hampton Ave #5 ,"West Hollywood, ",CA,90046
28143727,3226 W ROOSEVELT St #12 ,"Phoenix, ",AZ,85009
27297363,359 N 21ST Ave ,"Phoenix, ",AZ,85009
23424605,451 Kansas St #468 ,"San Francisco, ",CA,94107
7106328,1253 N Orange Grove Ave ,"West Hollywood, ",CA,90046
173111084,7922 Yellow Thistle Trl #40 ,"Austin, ",TX,78735
22132608,8375 Wyndham Rd ,"Los Angeles, ",CA,90046
27651716,3605 W LATHAM St ,"Phoenix, ",AZ,85009
31232165,2225 Warbler Way ,"Austin, ",TX,78735
49704501,377xx N 31st Ave #2 ,"Phoenix, ",AZ,85086
30940791,10213 Elam Rd ,"Dallas, ",TX,75217
30921838,8728 Milverton Dr ,"Dallas, ",TX,75217
7125693,8012 Happy Ln ,"Los Angeles, ",CA,90046
7123209,2473 Crest View Dr ,"Los Angeles, ",CA,90046
31141480,1719 E Shore Dr ,"Dallas, ",TX,75217
148027919,211 S Henry St #202 ,"Madison, ",WI,53703
30939737,740 Sunburst Dr ,"Dallas, ",TX,75217
9980665,5540 32nd St NW ,"Washington, ",DC,20015
31228464,8106 Chalk Knoll Dr ,"Austin, ",TX,78735
28938850,834 Jones St Unit A ,"SAN FRANCISCO, ",CA,94109
9970541,3769 Oliver St NW ,"Washington, ",DC,20015
23216214,8790 Appian Way ,"Los Angeles, ",CA,90046
1659101,2029 Pierce St #301 ,"San Francisco, ",CA,94115
7116853,1408 N Genesee Ave ,"Los Angeles, ",CA,90046
12397954,175 Bluxome St #307 ,"San Francisco, ",CA,94107
31157181,7800 Southwest Pkwy #1611 ,"Austin, ",TX,78735
89915319,1349 Jenifer St ,"Madison, ",WI,53703
1458304,1919 Broderick St ,"San Francisco, ",CA,94115
17304921,425 1st St #3804 ,"San Francisco, ",CA,94105
89903547,221 N Pinckney St ,"Madison, ",WI,53703
7126204,7932 Woodrow Wilson Dr ,"Los Angeles, ",CA,90046
171376436,2939 W Buckeye Rd #9 ,"Phoenix, ",AZ,85009
1991782,2121 Laguna St #22 ,"San Francisco, ",CA,94115
27506375,3329 W CYPRESS St ,"Phoenix, ",AZ,85009
554775,631 Ofarrell St #1003 ,"San Francisco, ",CA,94109
567368,1950 Gough St #402 ,"San Francisco, ",CA,94109
53354677,1400 N Fuller Ave #8 ,"Los Angeles, ",CA,90046
109055379,825 E Mifflin St #206 ,"Madison, ",WI,53703
28111938,1337 N 38TH Ave ,"Phoenix, ",AZ,85009
31159770,3600 Verano Dr ,"Austin, ",TX,78735
76420049,377xx N 31st Ave #1 ,"Phoenix, ",AZ,85086
1375188,3008 Clay ,"San Francisco, ",CA,94115
23101050,2680 Bowmont Dr ,"Beverly Hills, ",CA,90210
69371515,1645 Pacific Ave Unit 5G ,"San Francisco, ",CA,94109
31878895,7849 Escala Dr ,"Austin, ",TX,78735
5312355,7473 Mulholland Dr ,"Los Angeles, ",CA,90046
7116269,7831 Hillside Ave ,"Los Angeles, ",CA,90046
17305986,1310 Fillmore St #609 ,"San Francisco, ",CA,94115
31228468,8224 Chalk Knoll Dr ,"Austin, ",TX,78735
145271519,1400 N Vista St #2 ,"Los Angeles, ",CA,90046
62386013,615 W Main St #306 ,"Madison, ",WI,53703
7119615,8587 Cole Crest Drive Dr ,"Los Angeles, ",CA,90046
30940788,10311 Elam Rd ,"Dallas, ",TX,75217
40138566,818 Van Ness Ave #509 ,"San Francisco, ",CA,94109
69371272,144 Diamond St ,"San Francisco, ",CA,94114
57806639,333 W Mifflin St #8080 ,"Madison, ",WI,53703
173265149,212 Noe St ,"San Francisco, ",CA,94114
31219266,2305 Barton Creek Blvd #24 ,"Austin, ",TX,78735
143409615,5310 Connecticut Ave NW #7 ,"Washington, ",DC,20015
12289555,7320 Hawthorn Ave #411 ,"Hollywood, ",CA,90046
173332603,762 Fell St Unit A ,"San Francisco, ",CA,94117
110052010,1515 15th St #401 ,"San Francisco, ",CA,94103
9969817,5410 Connecticut Ave NW #911 ,"Washington, ",DC,20015
7104530,728 N Kilkea Dr ,"Los Angeles, ",CA,90046
1951943,32 Walter St ,"San Francisco, ",CA,94114
7116861,1445 N Genesee Ave ,"Los Angeles, ",CA,90046
31141909,904 Brae Loch Dr ,"Dallas, ",TX,75217
17305562,4164 17th St ,"San Francisco, ",CA,94114
7117148,1400 N Hayworth Ave #39 ,"West Hollywood, ",CA,90046
12531054,4301 Military Rd NW #112 ,"Washington, ",DC,20015
597853,1250 Page St #3 ,"San Francisco, ",CA,94117
7106722,1047 N Stanley Ave ,"West Hollywood, ",CA,90046
1681968,140 S Van Ness Ave #529 ,"San Francisco, ",CA,94103
9992736,5320 27th St NW ,"Washington, ",DC,20015
30939512,910 N Prairie Creek Rd N ,"Dallas, ",TX,75217
57826501,333 W Mifflin St #3100 ,"Madison, ",WI,53703
9949052,4425 Harrison St NW ,"Washington, ",DC,20015
704305,1839 15th St #155 ,"San Francisco, ",CA,94103
57801790,1219 Rutledge St #5 ,"Madison, ",WI,53703
1731649,601 Van Ness Ave #844 ,"San Francisco, ",CA,94102
18471589,201 Sansome St #501 ,"San Francisco, ",CA,94104
2026348,2121 Laguna St #5 ,"San Francisco, ",CA,94115
57819326,123 W Washington Ave #509 ,"Madison, ",WI,53703
27506398,503 N 40TH Ave ,"Phoenix, ",AZ,85009
12130966,7320 Hawthorn Ave #419 ,"Los Angeles, ",CA,90046
31142791,1366 Old Jamestown Ct ,"Dallas, ",TX,75217
173336476,7 Alpine Ter ,"San Francisco, ",CA,94117
31050154,861 Wixom Ln ,"Dallas, ",TX,75217
7119362,8270 Kirkwood Dr ,"Los Angeles, ",CA,90046
7103474,813 N Spaulding Ave ,"Los Angeles, ",CA,90046
7114322,7250 Franklin Ave #715 ,"Los Angeles, ",CA,90046
28938867,4054 18th St ,"San Francisco, ",CA,94114
871768,1390 Hayes St #2 ,"San Francisco, ",CA,94117
23218795,8769 Skyline Dr ,"Los Angeles, ",CA,90046
12402302,282 Dolores St ,"San Francisco, ",CA,94103
52059198,52 Sharon St Unit A ,"San Francisco, ",CA,94114
9969783,5410 Connecticut Ave NW #817 ,"Washington, ",DC,20015
57805849,360 W Washington Ave #1110 ,"Madison, ",WI,53703
7114337,7250 Franklin Ave #814 ,"Los Angeles, ",CA,90046
709778,3917 18th St ,"San Francisco, ",CA,94114
7126144,2861 Seattle Dr ,"Los Angeles, ",CA,90046
7105951,1021 N Crescent Hts #106 ,"West Hollywood, ",CA,90046
7117366,1416 Havenhurst Dr Unit 5A ,"West Hollywood, ",CA,90046
7103461,848 N Genesee Ave ,"Los Angeles, ",CA,90046
173213973,7313 Pyramid Pl ,"Los Angeles, ",CA,90046
89945450,123 W Washington Ave #805 ,"Madison, ",WI,53703
173357062,15-17 Temple St ,"San Francisco, ",CA,94114
1993390,3643 19th St ,"San Francisco, ",CA,94110
578918,1288 McAllister St #302 ,"San Francisco, ",CA,94115
7106860,924 N Stanley Ave ,"West Hollywood, ",CA,90046
89930352,121 S Hamilton St #203 ,"Madison, ",WI,53703
109287055,338 Potrero Ave #409 ,"San Francisco, ",CA,94110
5257578,8200 Mulholland Ter ,"Los Angeles, ",CA,90046
172734180,1945 Education Way ,"Dallas, ",TX,75217
31995649,5813 Medicine Creek Dr ,"Austin, ",TX,78735
7106321,1205 N Orange Grove Ave ,"West Hollywood, ",CA,90046
7104536,725 N Crescent Heights Blvd ,"Los Angeles, ",CA,90046
1514674,1895 Pacific Ave #502 ,"San Francisco, ",CA,94109
27532572,3021 W FILLMORE St ,"Phoenix, ",AZ,85009
5312387,7475 Mulholland Dr ,"Los Angeles, ",CA,90046
172658312,7919 Yellow Thistle Trl #8 ,"Austin, ",TX,78735
1911568,348 Dolores St ,"San Francisco, ",CA,94110
147339320,8200 Southwest Pkwy #303 ,"Austin, ",TX,78735
2012617,2139 Green St Unit I ,"San Francisco, ",CA,94123
7126423,2200 Nichols Canyon Rd ,"Los Angeles, ",CA,90046
7124552,2114 Kew Dr ,"Los Angeles, ",CA,90046
28939206,335 Berry St #402 ,"San Francisco, ",CA,94158
170686982,1360 N Fairfax Ave ,"Los Angeles, ",CA,90046
49704509,377xx N 31st Ave #3 ,"Phoenix, ",AZ,85086
960465,62 Encanto Ave ,"San Francisco, ",CA,94115
31232145,2007 Shallow Stream Cv ,"Austin, ",TX,78735
7115412,1538 N Stanley Ave ,"Los Angeles, ",CA,90046
171195536,1358 N Fairfax Ave ,"Los Angeles, ",CA,90046
27505334,3530 W ROOSEVELT St ,"Phoenix, ",AZ,85009
1633931,1001 Pine St #404 ,"San Francisco, ",CA,94109
57799673,155 E Wilson St #102 ,"Madison, ",WI,53703
1502573,319 Arkansas St ,"San Francisco, ",CA,94107
57838428,333 W Mifflin St #1157 ,"Madison, ",WI,53703
27119016,2537 N 40th Ave ,"Phoenix, ",AZ,85009
30918807,648 Helena St ,"Dallas, ",TX,75217
27665812,3512 W MARICOPA St ,"Phoenix, ",AZ,85009
1928238,368-372 Noe St ,"San Francisco, ",CA,94114
7102647,744 N Vista St ,"Los Angeles, ",CA,90046
7125207,7851 Electra Dr ,"Los Angeles, ",CA,90046
1575549,2700 21st St ,"San Francisco, ",CA,94110
28390812,3528 W ENCANTO Blvd ,"Phoenix, ",AZ,85009
173110915,7931 Yellow Thistle Trl #14 ,"Austin, ",TX,78735
145061074,833 E Mifflin St ,"Madison, ",WI,53703
17242310,1318 N Crescent Heights Blvd #211 ,"West Hollywood, ",CA,90046
7125164,7567 Hermes Dr ,"Los Angeles, ",CA,90046
109240355,2121 Webster St Unit TH10 ,"San Francisco, ",CA,94115
7119662,8350 Kirkwood Dr ,"Los Angeles, ",CA,90046
79042974,944 N Stanley Ave #3 ,"West Hollywood, ",CA,90046
173093837,1367 N Alta Vista Blvd #301 ,"Los Angeles, ",CA,90046
9993474,5738 Oregon Ave NW ,"Washington, ",DC,20015
167259016,1868 Van Ness Ave #604 ,"San Francisco, ",CA,94109
57854083,201 N Blair St #106 ,"Madison, ",WI,53703
110291282,388 Fulton St #202 ,"San Francisco, ",CA,94102
1757962,4576 19th St ,"San Francisco, ",CA,94114
31050118,801 Wixom Ln ,"Dallas, ",TX,75217
9971546,5229 Connecticut Ave NW #1009 ,"Washington, ",DC,20015
63038751,331 W Wilson St ,"Madison, ",WI,53703
28382350,3420 W Hadley St ,"Phoenix, ",AZ,85009
7106805,931 N Gardner St ,"West Hollywood, ",CA,90046
109465239,4343 Harrison St NW #7 ,"Washington, ",DC,20015
7106622,7606 Norton Ave ,"West Hollywood, ",CA,90046
22045611,588 Page ,"San Francisco, ",CA,94117
27737819,4019 W ALMERIA Rd ,"Phoenix, ",AZ,85009
27523624,3707 W PORTAND St ,"Phoenix, ",AZ,85009
7125748,2729 Nichols Canyon Rd ,"Los Angeles, ",CA,90046
7115847,1355 N Sierra Bonita Ave #205 ,"West Hollywood, ",CA,90046
7124654,8515 Ridpath Dr ,"Los Angeles, ",CA,90046
28360062,2004 W Madison St ,"Phoenix, ",AZ,85009
730613,734 Vermont St ,"San Francisco, ",CA,94107
172407813,838 N Martel Ave ,"Los Angeles, ",CA,90046
30917869,1603 Houghton Rd ,"Dallas, ",TX,75217
7119884,1995 Sunset Plaza Dr ,"Los Angeles, ",CA,90069
173119067,1915 Education Way ,"Dallas, ",TX,75217
7102526,801 N Martel Ave #2 ,"Los Angeles, ",CA,90046
9995211,2749 Unicorn Ln NW ,"Washington, ",DC,20015
173335285,1041 N Spaulding Ave #204 ,"Los Angeles, ",CA,90046
57869088,454 W Doty St ,"Madison, ",WI,53703
7123933,2594 Thames Pl ,"Los Angeles, ",CA,90046
7103413,822 N Orange Grove Ave ,"Los Angeles, ",CA,90046
10186789,5315 Connecticut Ave NW #108 ,"Washington, ",DC,20015
109686864,708 Long Bridge St #907 ,"San Francisco, ",CA,94158
30941747,9702 Glengreen ,"Dallas, ",TX,75217
62386103,533 W Main St #201 ,"Madison, ",WI,53703
172952656,2942 W BUCKEYE Rd Unit - ,"Phoenix, ",AZ,85009
17242277,2505 Woodstock Rd ,"Los Angeles, ",CA,90046
30996547,6425 Soter Pkwy ,"Austin, ",TX,78735
7103588,721 N Orange Grove Ave ,"Los Angeles, ",CA,90046
31154386,2310 S Saint Augustine Dr ,"Dallas, ",TX,75217
9957223,5326 43rd St NW ,"Washington, ",DC,20015
173318703,1927 W GRANADA Rd #25 ,"Phoenix, ",AZ,85009
17306145,566 S Van Ness Ave #12 ,"San Francisco, ",CA,94110
27725175,4247 W PORTLAND St ,"Phoenix, ",AZ,85009
172258608,252 Langdon St ,"Madison, ",WI,53703
110020227,1200 Barton Creek Blvd #30 ,"Austin, ",TX,78735
144064222,401 Harrison St Unit 22E ,"San Francisco, ",CA,94105
31216253,Undisclosed Address,"Austin, ",TX,78735
12531026,4301 Military Rd NW #315 ,"Washington, ",DC,20015
28231956,3230 W TAYLOR St ,"Phoenix, ",AZ,85009
12401669,1550 Ofarrell St #6 ,"San Francisco, ",CA,94115
173119705,14555 Gully Pl ,"Dallas, ",TX,75217
89964199,1119 Elizabeth St ,"Madison, ",WI,53703
102815631,2243 Green St Unit A ,"San Francisco, ",CA,94123
30923262,1406 Holcomb Rd ,"Dallas, ",TX,75217
965541,715-717 De Haro St ,"San Francisco, ",CA,94107
113107108,2403 Laurel Canyon Blvd ,"Los Angeles, ",CA,90046
1335457,201 Harrison St #925 ,"San Francisco, ",CA,94105
79039734,1400 N Fuller Ave #19 ,"Los Angeles, ",CA,90046
89945976,311 N Hancock St #225 ,"Madison, ",WI,53703
5257527,8115 Mulholland Ter ,"Los Angeles, ",CA,90046
7126245,2859 Westbrook Ave ,"Los Angeles, ",CA,90046
30996750,2305 Swirling Wind Cv ,"Austin, ",TX,78735
30924874,617 Odeneal St ,"Dallas, ",TX,75217
89903074,153 Dayton Row ,"Madison, ",WI,53703
9969655,5410 Connecticut Ave NW #517 ,"Washington, ",DC,20015
89915158,1318-1328 Williamson St ,"Madison, ",WI,53703
147160488,271 Shipley St Unit F6 ,"San Francisco, ",CA,94107
1823803,2130 Sutter St Unit B ,"San Francisco, ",CA,94115
7124336,8540 N Mulholland Dr ,"Los Angeles, ",CA,90046
7106815,951 N Gardner St #7 ,"West Hollywood, ",CA,90046
21966860,301 Main St Unit 20E ,"San Francisco, ",CA,94105
853185,1800 Bryant St #313 ,"San Francisco, ",CA,94110
668244,340 Roosevelt Way ,"San Francisco, ",CA,94114
7117273,1424 N Crescent Heights Blvd #24 ,"West Hollywood, ",CA,90046
9970072,5406 Connecticut Ave NW #401 ,"Washington, ",DC,20015
148071704,38 Camp St ,"San Francisco, ",CA,94110
1127360,980 Oak St #1 ,"San Francisco, ",CA,94117
110131498,1132 N Ogden Dr ,"West Hollywood, ",CA,90046
57807971,333 W Mifflin St #5030 ,"Madison, ",WI,53703
22143306,1300 N Poinsettia Pl ,"Los Angeles, ",CA,90046
57812429,155 E Wilson St #402 ,"Madison, ",WI,53703
7124243,8400 Edwin Dr ,"Los Angeles, ",CA,90046
1804311,601 Van Ness Ave #51 ,"San Francisco, ",CA,94102
8137848,1426 N Laurel Ave #110 ,"West Hollywood, ",CA,90046
173336588,1071 A Natoma St ,"San Francisco, ",CA,94103
110027990,451 A Sanchez St ,"San Francisco, ",CA,94114
7115288,1745 Camino Palmero St #439 ,"Los Angeles, ",CA,90046
104197114,2655 Bush St #206 ,"SAN FRANCISCO, ",CA,94115
30916543,1347 Templecliff Dr ,"Dallas, ",TX,75217
89915549,1219 Rutledge St #1 ,"Madison, ",WI,53703
31143001,812 Woodrock Dr ,"Dallas, ",TX,75217
31878831,Undisclosed Address,"Austin, ",TX,78735
9992784,3105 Military Rd NW ,"Washington, ",DC,20015
